start=new Date('2023-06-22T00:00:00.000Z').valueOf();
sats=[{"APOAPSIS":"540.491","ARG_OF_PERICENTER":"87.8425","RCS_SIZE":"LARGE","PERIOD":"95.438","NORAD_CAT_ID":"54078","TLE_LINE1":"1 54078U 22136AD  23172.48492622 -.00001075  00000-0 -49485-4 0  9999","REF_FRAME":"TEME","SITE":"AFETR","RA_OF_ASC_NODE":"98.4160","TIME_SYSTEM":"UTC","DECAY_DATE":null,"CENTER_NAME":"EARTH","PERIAPSIS":"539.010","COUNTRY_CODE":"US","ECCENTRICITY":"0.00010700","FILE":"3939133","GP_ID":"234437120","MEAN_MOTION":"15.08838289","TLE_LINE2":"2 54078  53.2158  98.4160 0001070  87.8425 272.2690 15.08838289 37336","LAUNCH_DATE":"2022-10-20","MEAN_MOTION_DDOT":"0.0000000000000","MEAN_MOTION_DOT":"-0.00001075","OBJECT_ID":"2022-136AD","OBJECT_NAME":"STARLINK-5138","SEMIMAJOR_AXIS":"6917.886","OBJECT_TYPE":"PAYLOAD","EPOCH":"2023-06-21T11:38:17.625408","ELEMENT_SET_NO":"999","MEAN_ANOMALY":"272.2690","CLASSIFICATION_TYPE":"U","BSTAR":"-0.00004948500000","EPHEMERIS_TYPE":"0","INCLINATION":"53.2158","REV_AT_EPOCH":"3733","MEAN_ELEMENT_THEORY":"SGP4"},{"TIME_SYSTEM":"UTC","PERIAPSIS":"538.953","COUNTRY_CODE":"US","CENTER_NAME":"EARTH","DECAY_DATE":null,"MEAN_MOTION":"15.08843799","GP_ID":"234437372","ECCENTRICITY":"0.00011280","FILE":"3939133","APOAPSIS":"540.514","NORAD_CAT_ID":"54079","ARG_OF_PERICENTER":"93.8699","RCS_SIZE":"LARGE","PERIOD":"95.437","RA_OF_ASC_NODE":"110.2499","REF_FRAME":"TEME","SITE":"AFETR","TLE_LINE1":"1 54079U 22136AE  23172.10033717  .00000689  00000-0  61338-4 0  9994","CLASSIFICATION_TYPE":"U","MEAN_ANOMALY":"266.2423","ELEMENT_SET_NO":"999","EPOCH":"2023-06-21T02:24:29.131488","EPHEMERIS_TYPE":"0","BSTAR":"0.00006133800000","MEAN_ELEMENT_THEORY":"SGP4","INCLINATION":"53.2157","REV_AT_EPOCH":"3713","LAUNCH_DATE":"2022-10-20","TLE_LINE2":"2 54079  53.2157 110.2499 0001128  93.8699 266.2423 15.08843799 37135","MEAN_MOTION_DOT":"0.00000689","MEAN_MOTION_DDOT":"0.0000000000000","OBJECT_NAME":"STARLINK-5175","OBJECT_ID":"2022-136AE","OBJECT_TYPE":"PAYLOAD","SEMIMAJOR_AXIS":"6917.869"},{"EPOCH":"2023-06-21T13:23:33.838656","CLASSIFICATION_TYPE":"U","MEAN_ANOMALY":"276.9159","ELEMENT_SET_NO":"999","INCLINATION":"53.2179","REV_AT_EPOCH":"3761","MEAN_ELEMENT_THEORY":"SGP4","EPHEMERIS_TYPE":"0","BSTAR":"-0.00014307000000","MEAN_MOTION_DDOT":"0.0000000000000","MEAN_MOTION_DOT":"-0.00002565","TLE_LINE2":"2 54080  53.2179 113.1284 0001354  83.1988 276.9159 15.08850444 37611","LAUNCH_DATE":"2022-10-20","SEMIMAJOR_AXIS":"6917.848","OBJECT_TYPE":"PAYLOAD","OBJECT_NAME":"STARLINK-5160","OBJECT_ID":"2022-136AF","TIME_SYSTEM":"UTC","GP_ID":"234444298","ECCENTRICITY":"0.00013540","FILE":"3939348","MEAN_MOTION":"15.08850444","CENTER_NAME":"EARTH","DECAY_DATE":null,"PERIAPSIS":"538.777","COUNTRY_CODE":"US","APOAPSIS":"540.650","REF_FRAME":"TEME","SITE":"AFETR","TLE_LINE1":"1 54080U 22136AF  23172.55803054 -.00002565  00000-0 -14307-3 0  9994","RA_OF_ASC_NODE":"113.1284","RCS_SIZE":"LARGE","ARG_OF_PERICENTER":"83.1988","PERIOD":"95.437","NORAD_CAT_ID":"54080"},{"APOAPSIS":"540.654","NORAD_CAT_ID":"54081","PERIOD":"95.438","RCS_SIZE":"LARGE","ARG_OF_PERICENTER":"122.8656","RA_OF_ASC_NODE":"109.6073","TLE_LINE1":"1 54081U 22136AG  23172.22544978  .00000398  00000-0  43068-4 0  9993","SITE":"AFETR","REF_FRAME":"TEME","TIME_SYSTEM":"UTC","PERIAPSIS":"538.832","COUNTRY_CODE":"US","DECAY_DATE":null,"CENTER_NAME":"EARTH","MEAN_MOTION":"15.08840719","ECCENTRICITY":"0.00013170","FILE":"3939133","GP_ID":"234436870","LAUNCH_DATE":"2022-10-20","TLE_LINE2":"2 54081  53.2173 109.6073 0001317 122.8656 237.2463 15.08840719 37155","MEAN_MOTION_DOT":"0.00000398","MEAN_MOTION_DDOT":"0.0000000000000","OBJECT_ID":"2022-136AG","OBJECT_NAME":"STARLINK-5165","OBJECT_TYPE":"PAYLOAD","SEMIMAJOR_AXIS":"6917.878","ELEMENT_SET_NO":"999","CLASSIFICATION_TYPE":"U","MEAN_ANOMALY":"237.2463","EPOCH":"2023-06-21T05:24:38.860992","BSTAR":"0.00004306800000","EPHEMERIS_TYPE":"0","MEAN_ELEMENT_THEORY":"SGP4","INCLINATION":"53.2173","REV_AT_EPOCH":"3715"},{"RA_OF_ASC_NODE":"108.1499","REF_FRAME":"TEME","SITE":"AFETR","TLE_LINE1":"1 54082U 22136AH  23172.56034252 -.00000836  00000-0 -34416-4 0  9996","NORAD_CAT_ID":"54082","ARG_OF_PERICENTER":"81.5539","RCS_SIZE":"LARGE","PERIOD":"95.438","APOAPSIS":"540.992","MEAN_MOTION":"15.08834739","GP_ID":"234439182","FILE":"3939151","ECCENTRICITY":"0.00017790","PERIAPSIS":"538.531","COUNTRY_CODE":"US","CENTER_NAME":"EARTH","DECAY_DATE":null,"TIME_SYSTEM":"UTC","OBJECT_TYPE":"PAYLOAD","SEMIMAJOR_AXIS":"6917.896","OBJECT_NAME":"STARLINK-5210","OBJECT_ID":"2022-136AH","MEAN_MOTION_DDOT":"0.0000000000000","MEAN_MOTION_DOT":"-0.00000836","LAUNCH_DATE":"2022-10-20","TLE_LINE2":"2 54082  53.2175 108.1499 0001779  81.5539 278.5655 15.08834739 37681","MEAN_ELEMENT_THEORY":"SGP4","REV_AT_EPOCH":"3768","INCLINATION":"53.2175","BSTAR":"-0.00003441600000","EPHEMERIS_TYPE":"0","CLASSIFICATION_TYPE":"U","MEAN_ANOMALY":"278.5655","ELEMENT_SET_NO":"999","EPOCH":"2023-06-21T13:26:53.593728"},{"COUNTRY_CODE":"US","PERIAPSIS":"539.021","CENTER_NAME":"EARTH","DECAY_DATE":null,"MEAN_MOTION":"15.08839838","GP_ID":"234437872","ECCENTRICITY":"0.00010480","FILE":"3939133","TIME_SYSTEM":"UTC","NORAD_CAT_ID":"54083","RCS_SIZE":"LARGE","ARG_OF_PERICENTER":"90.3437","PERIOD":"95.438","RA_OF_ASC_NODE":"108.0790","SITE":"AFETR","REF_FRAME":"TEME","TLE_LINE1":"1 54083U 22136AJ  23172.54928331 -.00000686  00000-0 -25048-4 0  9999","APOAPSIS":"540.471","EPHEMERIS_TYPE":"0","BSTAR":"-0.00002504800000","MEAN_ELEMENT_THEORY":"SGP4","INCLINATION":"53.2169","REV_AT_EPOCH":"3720","CLASSIFICATION_TYPE":"U","MEAN_ANOMALY":"269.7675","ELEMENT_SET_NO":"999","EPOCH":"2023-06-21T13:10:58.077984","OBJECT_NAME":"STARLINK-5178","OBJECT_ID":"2022-136AJ","OBJECT_TYPE":"PAYLOAD","SEMIMAJOR_AXIS":"6917.881","LAUNCH_DATE":"2022-10-20","TLE_LINE2":"2 54083  53.2169 108.0790 0001048  90.3437 269.7675 15.08839838 37209","MEAN_MOTION_DDOT":"0.0000000000000","MEAN_MOTION_DOT":"-0.00000686"},{"ELEMENT_SET_NO":"999","CLASSIFICATION_TYPE":"U","MEAN_ANOMALY":"260.9268","EPOCH":"2023-06-21T13:17:38.989536","EPHEMERIS_TYPE":"0","BSTAR":"-0.00000250060000","MEAN_ELEMENT_THEORY":"SGP4","REV_AT_EPOCH":"3720","INCLINATION":"53.2162","LAUNCH_DATE":"2022-10-20","TLE_LINE2":"2 54084  53.2162 108.1033 0001221  99.1862 260.9268 15.08843122 37208","MEAN_MOTION_DDOT":"0.0000000000000","MEAN_MOTION_DOT":"-0.00000328","OBJECT_ID":"2022-136AK","OBJECT_NAME":"STARLINK-5183","OBJECT_TYPE":"PAYLOAD","SEMIMAJOR_AXIS":"6917.871","TIME_SYSTEM":"UTC","COUNTRY_CODE":"US","PERIAPSIS":"538.891","DECAY_DATE":null,"CENTER_NAME":"EARTH","MEAN_MOTION":"15.08843122","FILE":"3939133","ECCENTRICITY":"0.00012210","GP_ID":"234436368","APOAPSIS":"540.581","NORAD_CAT_ID":"54084","ARG_OF_PERICENTER":"99.1862","RCS_SIZE":"LARGE","PERIOD":"95.437","RA_OF_ASC_NODE":"108.1033","TLE_LINE1":"1 54084U 22136AK  23172.55392349 -.00000328  00000-0 -25006-5 0  9993","SITE":"AFETR","REF_FRAME":"TEME"},{"APOAPSIS":"540.648","NORAD_CAT_ID":"54085","RCS_SIZE":"LARGE","ARG_OF_PERICENTER":"87.1289","PERIOD":"95.438","RA_OF_ASC_NODE":"108.0564","REF_FRAME":"TEME","SITE":"AFETR","TLE_LINE1":"1 54085U 22136AL  23172.54559914 -.00000058  00000-0  14435-4 0  9998","TIME_SYSTEM":"UTC","COUNTRY_CODE":"US","PERIAPSIS":"538.845","CENTER_NAME":"EARTH","DECAY_DATE":null,"MEAN_MOTION":"15.08839676","GP_ID":"234444289","FILE":"3939348","ECCENTRICITY":"0.00013030","LAUNCH_DATE":"2022-10-20","TLE_LINE2":"2 54085  53.2157 108.0564 0001303  87.1289 272.9852 15.08839676 37674","MEAN_MOTION_DOT":"-0.00000058","MEAN_MOTION_DDOT":"0.0000000000000","OBJECT_NAME":"STARLINK-5166","OBJECT_ID":"2022-136AL","OBJECT_TYPE":"PAYLOAD","SEMIMAJOR_AXIS":"6917.881","CLASSIFICATION_TYPE":"U","MEAN_ANOMALY":"272.9852","ELEMENT_SET_NO":"999","EPOCH":"2023-06-21T13:05:39.765696","BSTAR":"0.00001443500000","EPHEMERIS_TYPE":"0","MEAN_ELEMENT_THEORY":"SGP4","INCLINATION":"53.2157","REV_AT_EPOCH":"3767"},{"MEAN_MOTION_DDOT":"0.0000000000000","MEAN_MOTION_DOT":"-0.00001595","TLE_LINE2":"2 54086  53.2168  93.4165 0001046  87.2358 272.8753 15.08838741 37405","LAUNCH_DATE":"2022-10-20","SEMIMAJOR_AXIS":"6917.884","OBJECT_TYPE":"PAYLOAD","OBJECT_ID":"2022-136AM","OBJECT_NAME":"STARLINK-5211","EPOCH":"2023-06-21T11:34:55.638624","ELEMENT_SET_NO":"999","CLASSIFICATION_TYPE":"U","MEAN_ANOMALY":"272.8753","REV_AT_EPOCH":"3740","INCLINATION":"53.2168","MEAN_ELEMENT_THEORY":"SGP4","BSTAR":"-0.00008216800000","EPHEMERIS_TYPE":"0","APOAPSIS":"540.473","TLE_LINE1":"1 54086U 22136AM  23172.48258841 -.00001595  00000-0 -82168-4 0  9993","REF_FRAME":"TEME","SITE":"AFETR","RA_OF_ASC_NODE":"93.4165","PERIOD":"95.438","RCS_SIZE":"LARGE","ARG_OF_PERICENTER":"87.2358","NORAD_CAT_ID":"54086","TIME_SYSTEM":"UTC","FILE":"3939133","ECCENTRICITY":"0.00010460","GP_ID":"234437121","MEAN_MOTION":"15.08838741","DECAY_DATE":null,"CENTER_NAME":"EARTH","COUNTRY_CODE":"US","PERIAPSIS":"539.026"},{"APOAPSIS":"540.602","SITE":"AFETR","REF_FRAME":"TEME","TLE_LINE1":"1 54087U 22136AN  23172.54191184 -.00000625  00000-0 -21203-4 0  9993","RA_OF_ASC_NODE":"108.0327","RCS_SIZE":"LARGE","ARG_OF_PERICENTER":"79.5230","PERIOD":"95.437","NORAD_CAT_ID":"54087","TIME_SYSTEM":"UTC","GP_ID":"234437373","ECCENTRICITY":"0.00012560","FILE":"3939133","MEAN_MOTION":"15.08844150","CENTER_NAME":"EARTH","DECAY_DATE":null,"PERIAPSIS":"538.864","COUNTRY_CODE":"US","MEAN_MOTION_DDOT":"0.0000000000000","MEAN_MOTION_DOT":"-0.00000625","TLE_LINE2":"2 54087  53.2169 108.0327 0001256  79.5230 280.5904 15.08844150 37209","LAUNCH_DATE":"2022-10-20","SEMIMAJOR_AXIS":"6917.868","OBJECT_TYPE":"PAYLOAD","OBJECT_NAME":"STARLINK-5184","OBJECT_ID":"2022-136AN","EPOCH":"2023-06-21T13:00:21.182976","CLASSIFICATION_TYPE":"U","MEAN_ANOMALY":"280.5904","ELEMENT_SET_NO":"999","INCLINATION":"53.2169","REV_AT_EPOCH":"3720","MEAN_ELEMENT_THEORY":"SGP4","BSTAR":"-0.00002120300000","EPHEMERIS_TYPE":"0"}];
